{"fetched_at":"2026-03-29T16:36:15Z","count":15609,"tles":[{"name":"STARLINK-32039","line1":"1 60604U 24150X   26087.83344861  .00001819  00000+0  73547-4 0  9996","line2":"2 60604  53.1607 220.8512 0001115  96.5688 263.5440 15.30193394 90933","category":"Starlink"}]}